ONEWEB-0158             
1 48054U 21025N   24277.90108445  .00000156  00000+0  39177-3 0  9995
2 48054  87.8858  83.8162 0001461  93.8708 266.2588 13.13473081172077
ONEWEB-0157             
1 48055U 21025P   24277.84873895  .00000290  00000+0  76039-3 0  9994
2 48055  87.8858  83.8406 0001583  82.8247 277.3062 13.13469131172004
ONEWEB-0162             
1 48056U 21025Q   24277.88840587 -.00000158  00000+0 -46834-3 0  9996
2 48056  87.8857  83.8267 0001547  90.4779 269.6527 13.13471997171983
ONEWEB-0149             
1 48058U 21025S   24277.85349830  .00000183  00000+0  46649-3 0  9990
2 48058  87.8857  83.8418 0001398  87.2008 272.9281 13.13470658171927
ONEWEB-0148             
1 48059U 21025T   24277.89475471 -.00000049  00000+0 -16857-3 0  9997
2 48059  87.8858  83.8475 0001285  68.6478 291.4788 13.13470539172052
ONEWEB-0160             
1 48060U 21025U   24277.91060969  .00000125  00000+0  30848-3 0  9993
2 48060  87.8860  83.8405 0001612 123.8262 236.3020 13.13472595172005
ONEWEB-0163             
1 48061U 21025V   24277.89633717 -.00000038  00000+0 -13876-3 0  9995
2 48061  87.8855  83.8326 0001729  82.0909 278.0416 13.13472224172129
